STARLINK-35726          
1 66280U 25247R   25330.91673611  .00069958  00000+0  17455-2 0  9999
2 66280  53.1588 311.9405 0001501  97.9933 294.8909 15.39575561  5074
STARLINK-35727          
1 66281U 25247S   25330.91673611  .00086057  00000+0  21424-2 0  9990
2 66281  53.1596 311.8413 0002074  93.1468 349.3402 15.39545540  5077
STARLINK-35776          
1 66282U 25247T   25330.91673611  .00084847  00000+0  21126-2 0  9995
2 66282  53.1597 311.8370 0001936  94.6180 349.7363 15.39547691  5073
STARLINK-35774          
1 66283U 25247U   25330.91673611 -.03023855  00000+0 -79000-1 0  9996
2 66283  53.1596 311.7924 0001135  93.5050  13.1786 15.42108089  5071
STARLINK-35830          
1 66284U 25247V   25330.91673611 -.03022224  00000+0 -78971-1 0  9992
2 66284  53.1597 311.7883 0001159  91.4376  17.1196 15.42100922  5078
STARLINK-35819          
1 66285U 25247W   25330.91673611 -.02026729  00000+0 -48507-1 0  9998
2 66285  53.1600 311.7556 0001297  95.2476  29.6611 15.44394409  5029
STARLINK-35783          
1 66286U 25247X   25330.95871544 -.00369729  00000+0 -81674-2 0  9999
2 66286  53.1593 311.5538 0004900  19.0464 341.0725 15.44678659  5269
STARLINK-34884          
1 66287U 25247Y   25330.56947564 -.00120193  00000+0 -22062-2 0  9999
2 66287  53.1594 313.3900 0004404  44.8567 315.2797 15.49038226  5204
STARLINK-34896          
1 66288U 25247Z   25330.89190205  .00011868  00000+0  22986-3 0  9990
2 66288  53.1593 311.8476 0001633 248.6791 111.4044 15.48187850  5252
STARLINK-35802          
1 66289U 25247AA  25330.89128340  .00108023  00000+0  19218-2 0  9995
2 66289  53.1593 311.8434 0001191  77.5024 282.6119 15.49335285  5256
STARLINK-35799          
1 66290U 25247AB  25330.37486873  .00083946  00000+0  14982-2 0  9997
2 66290  53.1602 314.3078 0000280  34.4635 325.6392 15.49367369  5225
STARLINK-35800          
1 66291U 25247AC  25330.89025230  .00101063  00000+0  18001-2 0  9998
2 66291  53.1594 311.8362 0001437  95.2054 264.9120 15.49335003  5302
