CCSDS_OMM_VERS = 2.0
CREATION_DATE  = 
ORIGINATOR     = 

OBJECT_NAME    = STARLINK-35726
OBJECT_ID      = 2025-247R
CENTER_NAME    = EARTH
REF_FRAME      = TEME
TIME_SYSTEM    = UTC
MEAN_ELEMENT_THEORY = SGP/SGP4

EPOCH          = 2025-11-26T22:00:05.999904
MEAN_MOTION    = 15.39575561
ECCENTRICITY   = .00015011
INCLINATION    = 53.1588
RA_OF_ASC_NODE = 311.9405
ARG_OF_PERICENTER = 97.9933
MEAN_ANOMALY   = 294.8909

EPHEMERIS_TYPE = 0
CLASSIFICATION_TYPE = U
NORAD_CAT_ID   = 66280
ELEMENT_SET_NO = 999
REV_AT_EPOCH   = 507
BSTAR          = .17454575E-2
MEAN_MOTION_DOT = .69958E-3
MEAN_MOTION_DDOT = 0

CCSDS_OMM_VERS = 2.0
CREATION_DATE  = 
ORIGINATOR     = 

OBJECT_NAME    = STARLINK-35727
OBJECT_ID      = 2025-247S
CENTER_NAME    = EARTH
REF_FRAME      = TEME
TIME_SYSTEM    = UTC
MEAN_ELEMENT_THEORY = SGP/SGP4

EPOCH          = 2025-11-26T22:00:05.999904
MEAN_MOTION    = 15.39545540
ECCENTRICITY   = .00020744
INCLINATION    = 53.1596
RA_OF_ASC_NODE = 311.8413
ARG_OF_PERICENTER = 93.1468
MEAN_ANOMALY   = 349.3402

EPHEMERIS_TYPE = 0
CLASSIFICATION_TYPE = U
NORAD_CAT_ID   = 66281
ELEMENT_SET_NO = 999
REV_AT_EPOCH   = 507
BSTAR          = .21423881E-2
MEAN_MOTION_DOT = .86057E-3
MEAN_MOTION_DDOT = 0

CCSDS_OMM_VERS = 2.0
CREATION_DATE  = 
ORIGINATOR     = 

OBJECT_NAME    = STARLINK-35776
OBJECT_ID      = 2025-247T
CENTER_NAME    = EARTH
REF_FRAME      = TEME
TIME_SYSTEM    = UTC
MEAN_ELEMENT_THEORY = SGP/SGP4

EPOCH          = 2025-11-26T22:00:05.999904
MEAN_MOTION    = 15.39547691
ECCENTRICITY   = .00019365
INCLINATION    = 53.1597
RA_OF_ASC_NODE = 311.8370
ARG_OF_PERICENTER = 94.6180
MEAN_ANOMALY   = 349.7363

EPHEMERIS_TYPE = 0
CLASSIFICATION_TYPE = U
NORAD_CAT_ID   = 66282
ELEMENT_SET_NO = 999
REV_AT_EPOCH   = 507
BSTAR          = .21126046E-2
MEAN_MOTION_DOT = .84847E-3
MEAN_MOTION_DDOT = 0

CCSDS_OMM_VERS = 2.0
CREATION_DATE  = 
ORIGINATOR     = 

OBJECT_NAME    = STARLINK-35774
OBJECT_ID      = 2025-247U
CENTER_NAME    = EARTH
REF_FRAME      = TEME
TIME_SYSTEM    = UTC
MEAN_ELEMENT_THEORY = SGP/SGP4

EPOCH          = 2025-11-26T22:00:05.999904
MEAN_MOTION    = 15.42108089
ECCENTRICITY   = .00011353
INCLINATION    = 53.1596
RA_OF_ASC_NODE = 311.7924
ARG_OF_PERICENTER = 93.5050
MEAN_ANOMALY   = 13.1786

EPHEMERIS_TYPE = 0
CLASSIFICATION_TYPE = U
NORAD_CAT_ID   = 66283
ELEMENT_SET_NO = 999
REV_AT_EPOCH   = 507
BSTAR          = -.79000439E-1
MEAN_MOTION_DOT = -.3023855E-1
MEAN_MOTION_DDOT = 0

CCSDS_OMM_VERS = 2.0
CREATION_DATE  = 
ORIGINATOR     = 

OBJECT_NAME    = STARLINK-35830
OBJECT_ID      = 2025-247V
CENTER_NAME    = EARTH
REF_FRAME      = TEME
TIME_SYSTEM    = UTC
MEAN_ELEMENT_THEORY = SGP/SGP4

EPOCH          = 2025-11-26T22:00:05.999904
MEAN_MOTION    = 15.42100922
ECCENTRICITY   = .00011597
INCLINATION    = 53.1597
RA_OF_ASC_NODE = 311.7883
ARG_OF_PERICENTER = 91.4376
MEAN_ANOMALY   = 17.1196

EPHEMERIS_TYPE = 0
CLASSIFICATION_TYPE = U
NORAD_CAT_ID   = 66284
ELEMENT_SET_NO = 999
REV_AT_EPOCH   = 507
BSTAR          = -.78970514E-1
MEAN_MOTION_DOT = -.3022224E-1
MEAN_MOTION_DDOT = 0

CCSDS_OMM_VERS = 2.0
CREATION_DATE  = 
ORIGINATOR     = 

OBJECT_NAME    = STARLINK-35819
OBJECT_ID      = 2025-247W
CENTER_NAME    = EARTH
REF_FRAME      = TEME
TIME_SYSTEM    = UTC
MEAN_ELEMENT_THEORY = SGP/SGP4

EPOCH          = 2025-11-26T22:00:05.999904
MEAN_MOTION    = 15.44394409
ECCENTRICITY   = .0001297
INCLINATION    = 53.1600
RA_OF_ASC_NODE = 311.7556
ARG_OF_PERICENTER = 95.2476
MEAN_ANOMALY   = 29.6611

EPHEMERIS_TYPE = 0
CLASSIFICATION_TYPE = U
NORAD_CAT_ID   = 66285
ELEMENT_SET_NO = 999
REV_AT_EPOCH   = 502
BSTAR          = -.48506682E-1
MEAN_MOTION_DOT = -.2026729E-1
MEAN_MOTION_DDOT = 0

CCSDS_OMM_VERS = 2.0
CREATION_DATE  = 
ORIGINATOR     = 

OBJECT_NAME    = STARLINK-35783
OBJECT_ID      = 2025-247X
CENTER_NAME    = EARTH
REF_FRAME      = TEME
TIME_SYSTEM    = UTC
MEAN_ELEMENT_THEORY = SGP/SGP4

EPOCH          = 2025-11-26T23:00:33.014016
MEAN_MOTION    = 15.44678659
ECCENTRICITY   = .00049004
INCLINATION    = 53.1593
RA_OF_ASC_NODE = 311.5538
ARG_OF_PERICENTER = 19.0464
MEAN_ANOMALY   = 341.0725

EPHEMERIS_TYPE = 0
CLASSIFICATION_TYPE = U
NORAD_CAT_ID   = 66286
ELEMENT_SET_NO = 999
REV_AT_EPOCH   = 526
BSTAR          = -.81674325E-2
MEAN_MOTION_DOT = -.369729E-2
MEAN_MOTION_DDOT = 0

CCSDS_OMM_VERS = 2.0
CREATION_DATE  = 
ORIGINATOR     = 

OBJECT_NAME    = STARLINK-34884
OBJECT_ID      = 2025-247Y
CENTER_NAME    = EARTH
REF_FRAME      = TEME
TIME_SYSTEM    = UTC
MEAN_ELEMENT_THEORY = SGP/SGP4

EPOCH          = 2025-11-26T13:40:02.695296
MEAN_MOTION    = 15.49038226
ECCENTRICITY   = .00044047
INCLINATION    = 53.1594
RA_OF_ASC_NODE = 313.3900
ARG_OF_PERICENTER = 44.8567
MEAN_ANOMALY   = 315.2797

EPHEMERIS_TYPE = 0
CLASSIFICATION_TYPE = U
NORAD_CAT_ID   = 66287
ELEMENT_SET_NO = 999
REV_AT_EPOCH   = 520
BSTAR          = -.2206183E-2
MEAN_MOTION_DOT = -.120193E-2
MEAN_MOTION_DDOT = 0

CCSDS_OMM_VERS = 2.0
CREATION_DATE  = 
ORIGINATOR     = 

OBJECT_NAME    = STARLINK-34896
OBJECT_ID      = 2025-247Z
CENTER_NAME    = EARTH
REF_FRAME      = TEME
TIME_SYSTEM    = UTC
MEAN_ELEMENT_THEORY = SGP/SGP4

EPOCH          = 2025-11-26T21:24:20.337120
MEAN_MOTION    = 15.48187850
ECCENTRICITY   = .00016339
INCLINATION    = 53.1593
RA_OF_ASC_NODE = 311.8476
ARG_OF_PERICENTER = 248.6791
MEAN_ANOMALY   = 111.4044

EPHEMERIS_TYPE = 0
CLASSIFICATION_TYPE = U
NORAD_CAT_ID   = 66288
ELEMENT_SET_NO = 999
REV_AT_EPOCH   = 525
BSTAR          = .22985944E-3
MEAN_MOTION_DOT = .11868E-3
MEAN_MOTION_DDOT = 0

CCSDS_OMM_VERS = 2.0
CREATION_DATE  = 
ORIGINATOR     = 

OBJECT_NAME    = STARLINK-35802
OBJECT_ID      = 2025-247AA
CENTER_NAME    = EARTH
REF_FRAME      = TEME
TIME_SYSTEM    = UTC
MEAN_ELEMENT_THEORY = SGP/SGP4

EPOCH          = 2025-11-26T21:23:26.885760
MEAN_MOTION    = 15.49335285
ECCENTRICITY   = .00011912
INCLINATION    = 53.1593
RA_OF_ASC_NODE = 311.8434
ARG_OF_PERICENTER = 77.5024
MEAN_ANOMALY   = 282.6119

EPHEMERIS_TYPE = 0
CLASSIFICATION_TYPE = U
NORAD_CAT_ID   = 66289
ELEMENT_SET_NO = 999
REV_AT_EPOCH   = 525
BSTAR          = .1921786E-2
MEAN_MOTION_DOT = .108023E-2
MEAN_MOTION_DDOT = 0

CCSDS_OMM_VERS = 2.0
CREATION_DATE  = 
ORIGINATOR     = 

OBJECT_NAME    = STARLINK-35799
OBJECT_ID      = 2025-247AB
CENTER_NAME    = EARTH
REF_FRAME      = TEME
TIME_SYSTEM    = UTC
MEAN_ELEMENT_THEORY = SGP/SGP4

EPOCH          = 2025-11-26T08:59:48.658272
MEAN_MOTION    = 15.49367369
ECCENTRICITY   = .00002806
INCLINATION    = 53.1602
RA_OF_ASC_NODE = 314.3078
ARG_OF_PERICENTER = 34.4635
MEAN_ANOMALY   = 325.6392

EPHEMERIS_TYPE = 0
CLASSIFICATION_TYPE = U
NORAD_CAT_ID   = 66290
ELEMENT_SET_NO = 999
REV_AT_EPOCH   = 522
BSTAR          = .14981515E-2
MEAN_MOTION_DOT = .83946E-3
MEAN_MOTION_DDOT = 0

CCSDS_OMM_VERS = 2.0
CREATION_DATE  = 
ORIGINATOR     = 

OBJECT_NAME    = STARLINK-35800
OBJECT_ID      = 2025-247AC
CENTER_NAME    = EARTH
REF_FRAME      = TEME
TIME_SYSTEM    = UTC
MEAN_ELEMENT_THEORY = SGP/SGP4

EPOCH          = 2025-11-26T21:21:57.798720
MEAN_MOTION    = 15.49335003
ECCENTRICITY   = .0001437
INCLINATION    = 53.1594
RA_OF_ASC_NODE = 311.8362
ARG_OF_PERICENTER = 95.2054
MEAN_ANOMALY   = 264.9120

EPHEMERIS_TYPE = 0
CLASSIFICATION_TYPE = U
NORAD_CAT_ID   = 66291
ELEMENT_SET_NO = 999
REV_AT_EPOCH   = 530
BSTAR          = .18000945E-2
MEAN_MOTION_DOT = .101063E-2
MEAN_MOTION_DDOT = 0

